[{"OBJECT_NAME":"UNKNOWN","OBJECT_ID":"","EPOCH":"2026-04-24T09:21:46.408608","MEAN_MOTION":13.15548944,"ECCENTRICITY":0.0843977,"INCLINATION":65.7041,"RA_OF_ASC_NODE":111.9338,"ARG_OF_PERICENTER":57.0826,"MEAN_ANOMALY":310.8543,"EPHEMERIS_TYPE":0,"CLASSIFICATION_TYPE":"U","NORAD_CAT_ID":81921,"ELEMENT_SET_NO":999,"REV_AT_EPOCH":4323,"BSTAR":0.00057058,"MEAN_MOTION_DOT":1.345e-5,"MEAN_MOTION_DDOT":0},{"OBJECT_NAME":"UNKNOWN","OBJECT_ID":"","EPOCH":"2026-04-17T10:59:49.114176","MEAN_MOTION":12.42659626,"ECCENTRICITY":0.0678575,"INCLINATION":66.4152,"RA_OF_ASC_NODE":270.7748,"ARG_OF_PERICENTER":290.9166,"MEAN_ANOMALY":91.9277,"EPHEMERIS_TYPE":0,"CLASSIFICATION_TYPE":"U","NORAD_CAT_ID":81946,"ELEMENT_SET_NO":999,"REV_AT_EPOCH":56350,"BSTAR":0.00070454,"MEAN_MOTION_DOT":1.65e-6,"MEAN_MOTION_DDOT":0},{"OBJECT_NAME":"UNKNOWN","OBJECT_ID":"","EPOCH":"2026-04-22T20:36:37.466208","MEAN_MOTION":14.54169544,"ECCENTRICITY":0.0367835,"INCLINATION":66.0724,"RA_OF_ASC_NODE":161.9428,"ARG_OF_PERICENTER":59.9947,"MEAN_ANOMALY":303.7124,"EPHEMERIS_TYPE":0,"CLASSIFICATION_TYPE":"U","NORAD_CAT_ID":81947,"ELEMENT_SET_NO":999,"REV_AT_EPOCH":65007,"BSTAR":0.00026012,"MEAN_MOTION_DOT":2.603e-5,"MEAN_MOTION_DDOT":0},{"OBJECT_NAME":"UNKNOWN","OBJECT_ID":"","EPOCH":"2026-04-24T20:56:04.898688","MEAN_MOTION":13.95886819,"ECCENTRICITY":0.0037501,"INCLINATION":66.584,"RA_OF_ASC_NODE":288.1256,"ARG_OF_PERICENTER":347.4037,"MEAN_ANOMALY":12.6102,"EPHEMERIS_TYPE":0,"CLASSIFICATION_TYPE":"U","NORAD_CAT_ID":81964,"ELEMENT_SET_NO":999,"REV_AT_EPOCH":63262,"BSTAR":0.00016136,"MEAN_MOTION_DOT":1.43e-6,"MEAN_MOTION_DDOT":0},{"OBJECT_NAME":"UNKNOWN","OBJECT_ID":"","EPOCH":"2026-04-19T22:54:13.336128","MEAN_MOTION":15.14131565,"ECCENTRICITY":0.0007288,"INCLINATION":86.6785,"RA_OF_ASC_NODE":97.6234,"ARG_OF_PERICENTER":75.8661,"MEAN_ANOMALY":284.3389,"EPHEMERIS_TYPE":0,"CLASSIFICATION_TYPE":"U","NORAD_CAT_ID":81969,"ELEMENT_SET_NO":999,"REV_AT_EPOCH":45955,"BSTAR":0.0004656,"MEAN_MOTION_DOT":8.518e-5,"MEAN_MOTION_DDOT":0},{"OBJECT_NAME":"UNKNOWN","OBJECT_ID":"","EPOCH":"2026-04-25T08:15:14.243040","MEAN_MOTION":14.05606762,"ECCENTRICITY":0.0512737,"INCLINATION":65.7441,"RA_OF_ASC_NODE":133.94,"ARG_OF_PERICENTER":231.3913,"MEAN_ANOMALY":124.0198,"EPHEMERIS_TYPE":0,"CLASSIFICATION_TYPE":"U","NORAD_CAT_ID":81995,"ELEMENT_SET_NO":999,"REV_AT_EPOCH":62299,"BSTAR":0.00077568,"MEAN_MOTION_DOT":4.128e-5,"MEAN_MOTION_DDOT":0},{"OBJECT_NAME":"UNKNOWN","OBJECT_ID":"","EPOCH":"2026-04-25T15:33:16.377408","MEAN_MOTION":14.33389186,"ECCENTRICITY":0.0229616,"INCLINATION":97.947,"RA_OF_ASC_NODE":258.3114,"ARG_OF_PERICENTER":40.8924,"MEAN_ANOMALY":320.9236,"EPHEMERIS_TYPE":0,"CLASSIFICATION_TYPE":"U","NORAD_CAT_ID":82043,"ELEMENT_SET_NO":999,"REV_AT_EPOCH":59302,"BSTAR":0.00033462,"MEAN_MOTION_DOT":1.195e-5,"MEAN_MOTION_DDOT":0},{"OBJECT_NAME":"UNKNOWN","OBJECT_ID":"","EPOCH":"2026-04-25T11:14:35.231712","MEAN_MOTION":14.37531582,"ECCENTRICITY":0.009054,"INCLINATION":98.7389,"RA_OF_ASC_NODE":208.0558,"ARG_OF_PERICENTER":222.7442,"MEAN_ANOMALY":136.6678,"EPHEMERIS_TYPE":0,"CLASSIFICATION_TYPE":"U","NORAD_CAT_ID":82051,"ELEMENT_SET_NO":999,"REV_AT_EPOCH":59161,"BSTAR":0.0016031,"MEAN_MOTION_DOT":4.991e-5,"MEAN_MOTION_DDOT":0},{"OBJECT_NAME":"UNKNOWN","OBJECT_ID":"","EPOCH":"2026-04-25T10:27:05.220576","MEAN_MOTION":14.39651004,"ECCENTRICITY":0.0204237,"INCLINATION":97.7336,"RA_OF_ASC_NODE":183.7931,"ARG_OF_PERICENTER":238.9544,"MEAN_ANOMALY":119.1454,"EPHEMERIS_TYPE":0,"CLASSIFICATION_TYPE":"U","NORAD_CAT_ID":82073,"ELEMENT_SET_NO":999,"REV_AT_EPOCH":59435,"BSTAR":0.0004585,"MEAN_MOTION_DOT":1.786e-5,"MEAN_MOTION_DDOT":0},{"OBJECT_NAME":"UNKNOWN","OBJECT_ID":"","EPOCH":"2026-04-24T03:37:13.558368","MEAN_MOTION":14.16127868,"ECCENTRICITY":0.0081195,"INCLINATION":99.0083,"RA_OF_ASC_NODE":188.5897,"ARG_OF_PERICENTER":28.8836,"MEAN_ANOMALY":331.6796,"EPHEMERIS_TYPE":0,"CLASSIFICATION_TYPE":"U","NORAD_CAT_ID":82139,"ELEMENT_SET_NO":999,"REV_AT_EPOCH":49885,"BSTAR":0.00089319,"MEAN_MOTION_DOT":1.778e-5,"MEAN_MOTION_DDOT":0},{"OBJECT_NAME":"UNKNOWN","OBJECT_ID":"","EPOCH":"2026-04-25T02:03:42.955776","MEAN_MOTION":13.54659475,"ECCENTRICITY":0.0048907,"INCLINATION":100.468,"RA_OF_ASC_NODE":52.2921,"ARG_OF_PERICENTER":274.6757,"MEAN_ANOMALY":84.8792,"EPHEMERIS_TYPE":0,"CLASSIFICATION_TYPE":"U","NORAD_CAT_ID":82162,"ELEMENT_SET_NO":999,"REV_AT_EPOCH":52235,"BSTAR":0.0041399,"MEAN_MOTION_DOT":2.808e-5,"MEAN_MOTION_DDOT":0},{"OBJECT_NAME":"UNKNOWN","OBJECT_ID":"","EPOCH":"2026-04-25T09:43:35.293440","MEAN_MOTION":14.56009202,"ECCENTRICITY":0.0287821,"INCLINATION":65.6507,"RA_OF_ASC_NODE":268.9481,"ARG_OF_PERICENTER":147.8777,"MEAN_ANOMALY":214.0234,"EPHEMERIS_TYPE":0,"CLASSIFICATION_TYPE":"U","NORAD_CAT_ID":82180,"ELEMENT_SET_NO":999,"REV_AT_EPOCH":62117,"BSTAR":0.0032671,"MEAN_MOTION_DOT":0.00025348,"MEAN_MOTION_DDOT":0},{"OBJECT_NAME":"UNKNOWN","OBJECT_ID":"","EPOCH":"2026-04-16T11:33:51.195456","MEAN_MOTION":14.35306849,"ECCENTRICITY":0.0016951,"INCLINATION":74.035,"RA_OF_ASC_NODE":179.5748,"ARG_OF_PERICENTER":336.8231,"MEAN_ANOMALY":23.2155,"EPHEMERIS_TYPE":0,"CLASSIFICATION_TYPE":"U","NORAD_CAT_ID":82189,"ELEMENT_SET_NO":999,"REV_AT_EPOCH":65031,"BSTAR":6.0118e-5,"MEAN_MOTION_DOT":1.46e-6,"MEAN_MOTION_DDOT":0},{"OBJECT_NAME":"UNKNOWN","OBJECT_ID":"","EPOCH":"2026-04-25T00:36:46.135872","MEAN_MOTION":13.85932762,"ECCENTRICITY":0.0037767,"INCLINATION":82.9643,"RA_OF_ASC_NODE":133.6872,"ARG_OF_PERICENTER":21.3268,"MEAN_ANOMALY":7.1278,"EPHEMERIS_TYPE":0,"CLASSIFICATION_TYPE":"U","NORAD_CAT_ID":82199,"ELEMENT_SET_NO":999,"REV_AT_EPOCH":62815,"BSTAR":0.00036365,"MEAN_MOTION_DOT":4.36e-6,"MEAN_MOTION_DDOT":0},{"OBJECT_NAME":"UNKNOWN","OBJECT_ID":"","EPOCH":"2026-04-22T07:41:03.573600","MEAN_MOTION":13.94154689,"ECCENTRICITY":0.0498253,"INCLINATION":63.0074,"RA_OF_ASC_NODE":234.3603,"ARG_OF_PERICENTER":306.432,"MEAN_ANOMALY":49.1753,"EPHEMERIS_TYPE":0,"CLASSIFICATION_TYPE":"U","NORAD_CAT_ID":82205,"ELEMENT_SET_NO":999,"REV_AT_EPOCH":62620,"BSTAR":0.00028636,"MEAN_MOTION_DOT":9.44e-6,"MEAN_MOTION_DDOT":0},{"OBJECT_NAME":"UNKNOWN","OBJECT_ID":"","EPOCH":"2026-04-25T04:18:43.117344","MEAN_MOTION":14.12567365,"ECCENTRICITY":0.0068839,"INCLINATION":99.3125,"RA_OF_ASC_NODE":11.3406,"ARG_OF_PERICENTER":334.2549,"MEAN_ANOMALY":25.52,"EPHEMERIS_TYPE":0,"CLASSIFICATION_TYPE":"U","NORAD_CAT_ID":82223,"ELEMENT_SET_NO":999,"REV_AT_EPOCH":46762,"BSTAR":0.0010874,"MEAN_MOTION_DOT":2.009e-5,"MEAN_MOTION_DDOT":0},{"OBJECT_NAME":"UNKNOWN","OBJECT_ID":"","EPOCH":"2026-04-17T17:14:39.729696","MEAN_MOTION":14.14848813,"ECCENTRICITY":0.0068321,"INCLINATION":98.9063,"RA_OF_ASC_NODE":17.828,"ARG_OF_PERICENTER":193.6295,"MEAN_ANOMALY":195.9356,"EPHEMERIS_TYPE":0,"CLASSIFICATION_TYPE":"U","NORAD_CAT_ID":82250,"ELEMENT_SET_NO":999,"REV_AT_EPOCH":63444,"BSTAR":0.00096657,"MEAN_MOTION_DOT":1.864e-5,"MEAN_MOTION_DDOT":0}]
