UNKNOWN                 
1 81921U          26114.39012047  .00001345  00000+0  57058-3 0  9991
2 81921  65.7041 111.9338 0843977  57.0826 310.8543 13.15548944 43238
UNKNOWN                 
1 81946U          26107.45820734  .00000165  00000+0  70454-3 0  9991
2 81946  66.4152 270.7748 0678575 290.9166  91.9277 12.42659626563507
UNKNOWN                 
1 81947U          26112.85876697  .00002603  00000+0  26012-3 0  9991
2 81947  66.0724 161.9428 0367835  59.9947 303.7124 14.54169544650073
UNKNOWN                 
1 81964U          26114.87227892  .00000143  00000+0  16136-3 0  9994
2 81964  66.5840 288.1256 0037501 347.4037  12.6102 13.95886819632624
UNKNOWN                 
1 81969U          26109.95432102  .00008518  00000+0  46560-3 0  9992
2 81969  86.6785  97.6234 0007288  75.8661 284.3389 15.14131565459551
UNKNOWN                 
1 81995U          26115.34391485  .00004128  00000+0  77568-3 0  9994
2 81995  65.7441 133.9400 0512737 231.3913 124.0198 14.05606762622998
UNKNOWN                 
1 82043U          26115.64810622  .00001195  00000+0  33462-3 0  9997
2 82043  97.9470 258.3114 0229616  40.8924 320.9236 14.33389186593022
UNKNOWN                 
1 82051U          26115.46846333  .00004991  00000+0  16031-2 0  9993
2 82051  98.7389 208.0558 0090540 222.7442 136.6678 14.37531582591619
UNKNOWN                 
1 82073U          26115.43547709  .00001786  00000+0  45850-3 0  9990
2 82073  97.7336 183.7931 0204237 238.9544 119.1454 14.39651004594356
UNKNOWN                 
1 82139U          26114.15085137  .00001778  00000+0  89319-3 0  9992
2 82139  99.0083 188.5897 0081195  28.8836 331.6796 14.16127868498852
UNKNOWN                 
1 82162U          26115.08591384  .00002808  00000+0  41399-2 0  9997
2 82162 100.4680  52.2921 0048907 274.6757  84.8792 13.54659475522351
UNKNOWN                 
1 82180U          26115.40526960  .00025348  00000+0  32671-2 0  9998
2 82180  65.6507 268.9481 0287821 147.8777 214.0234 14.56009202621179
UNKNOWN                 
1 82189U          26106.48184254  .00000146  00000+0  60118-4 0  9999
2 82189  74.0350 179.5748 0016951 336.8231  23.2155 14.35306849650314
UNKNOWN                 
1 82199U          26115.02553398  .00000436  00000+0  36365-3 0  9997
2 82199  82.9643 133.6872 0037767  21.3268   7.1278 13.85932762628158
UNKNOWN                 
1 82205U          26112.32018025  .00000944  00000+0  28636-3 0  9994
2 82205  63.0074 234.3603 0498253 306.4320  49.1753 13.94154689626204
UNKNOWN                 
1 82223U          26115.17966571  .00002009  00000+0  10874-2 0  9996
2 82223  99.3125  11.3406 0068839 334.2549  25.5200 14.12567365467626
UNKNOWN                 
1 82250U          26107.71851539  .00001864  00000+0  96657-3 0  9996
2 82250  98.9063  17.8280 0068321 193.6295 195.9356 14.14848813634446
